[
  {
    "OBJECT_NAME": "STARLINK-1327",
    "OBJECT_ID": "20025AA",
    "EPOCH": "2025-11-11T05:46:38.123328",
    "MEAN_MOTION": 15.0640423,
    "ECCENTRICITY": 0.0001616,
    "INCLINATION": 53.0538,
    "RA_OF_ASC_NODE": 258.3554,
    "ARG_OF_PERICENTER": 92.3,
    "MEAN_ANOMALY": 267.8174,
    "EPHEMERIS_TYPE": 0,
    "CLASSIFICATION_TYPE": "U",
    "NORAD_CAT_ID": 45555,
    "ELEMENT_SET_NO": 999,
    "REV_AT_EPOCH": 30751,
    "BSTAR": 0.00039063,
    "MEAN_MOTION_DOT": 5.542e-05,
    "MEAN_MOTION_DDOT": 0.0,
    "TLE_LINE1": "1 45555U 20025AA  25315.24071902  .00005542  00000+0  39063-3 0  9993",
    "TLE_LINE2": "2 45555  53.0538 258.3554 0001616  92.3000 267.8174 15.06404230307516",
    "COMMENT": "Grouped by shell and plane from TLE"
  },
  {
    "OBJECT_NAME": "STARLINK-1356",
    "OBJECT_ID": "20025AK",
    "EPOCH": "2025-11-11T05:51:56.169504",
    "MEAN_MOTION": 15.06401248,
    "ECCENTRICITY": 0.0001421,
    "INCLINATION": 53.0544,
    "RA_OF_ASC_NODE": 258.3379,
    "ARG_OF_PERICENTER": 85.8131,
    "MEAN_ANOMALY": 274.302,
    "EPHEMERIS_TYPE": 0,
    "CLASSIFICATION_TYPE": "U",
    "NORAD_CAT_ID": 45564,
    "ELEMENT_SET_NO": 999,
    "REV_AT_EPOCH": 30751,
    "BSTAR": 0.00065959,
    "MEAN_MOTION_DOT": 9.557e-05,
    "MEAN_MOTION_DDOT": 0.0,
    "TLE_LINE1": "1 45564U 20025AK  25315.24440011  .00009557  00000+0  65959-3 0  9997",
    "TLE_LINE2": "2 45564  53.0544 258.3379 0001421  85.8131 274.3020 15.06401248307513",
    "COMMENT": "Grouped by shell and plane from TLE"
  },
  {
    "OBJECT_NAME": "STARLINK-1361",
    "OBJECT_ID": "20025AN",
    "EPOCH": "2025-11-11T03:07:22.768896",
    "MEAN_MOTION": 15.06398213,
    "ECCENTRICITY": 0.0001565,
    "INCLINATION": 53.054,
    "RA_OF_ASC_NODE": 258.8477,
    "ARG_OF_PERICENTER": 92.972,
    "MEAN_ANOMALY": 267.1448,
    "EPHEMERIS_TYPE": 0,
    "CLASSIFICATION_TYPE": "U",
    "NORAD_CAT_ID": 45567,
    "ELEMENT_SET_NO": 999,
    "REV_AT_EPOCH": 30750,
    "BSTAR": 0.00013147,
    "MEAN_MOTION_DOT": 1.677e-05,
    "MEAN_MOTION_DDOT": 0.0,
    "TLE_LINE1": "1 45567U 20025AN  25315.13012464  .00001677  00000+0  13147-3 0  9992",
    "TLE_LINE2": "2 45567  53.0540 258.8477 0001565  92.9720 267.1448 15.06398213307508",
    "COMMENT": "Grouped by shell and plane from TLE"
  },
  {
    "OBJECT_NAME": "STARLINK-1376",
    "OBJECT_ID": "20025AR",
    "EPOCH": "2025-11-11T03:02:04.210368",
    "MEAN_MOTION": 15.06391944,
    "ECCENTRICITY": 0.0001454,
    "INCLINATION": 53.0549,
    "RA_OF_ASC_NODE": 258.8706,
    "ARG_OF_PERICENTER": 92.1402,
    "MEAN_ANOMALY": 267.9754,
    "EPHEMERIS_TYPE": 0,
    "CLASSIFICATION_TYPE": "U",
    "NORAD_CAT_ID": 45570,
    "ELEMENT_SET_NO": 999,
    "REV_AT_EPOCH": 30749,
    "BSTAR": 8.0243e-05,
    "MEAN_MOTION_DOT": 9.14e-06,
    "MEAN_MOTION_DDOT": 0.0,
    "TLE_LINE1": "1 45570U 20025AR  25315.12643762  .00000914  00000+0  80243-4 0  9991",
    "TLE_LINE2": "2 45570  53.0549 258.8706 0001454  92.1402 267.9754 15.06391944307492",
    "COMMENT": "Grouped by shell and plane from TLE"
  },
  {
    "OBJECT_NAME": "STARLINK-1333",
    "OBJECT_ID": "20025BB",
    "EPOCH": "2025-11-11T05:30:40.798368",
    "MEAN_MOTION": 15.06428202,
    "ECCENTRICITY": 0.0001159,
    "INCLINATION": 53.0535,
    "RA_OF_ASC_NODE": 258.4038,
    "ARG_OF_PERICENTER": 99.126,
    "MEAN_ANOMALY": 260.986,
    "EPHEMERIS_TYPE": 0,
    "CLASSIFICATION_TYPE": "U",
    "NORAD_CAT_ID": 45580,
    "ELEMENT_SET_NO": 999,
    "REV_AT_EPOCH": 30751,
    "BSTAR": 0.0010045,
    "MEAN_MOTION_DOT": 0.00014723,
    "MEAN_MOTION_DDOT": 0.0,
    "TLE_LINE1": "1 45580U 20025BB  25315.22963887  .00014723  00000+0  10045-2 0  9990",
    "TLE_LINE2": "2 45580  53.0535 258.4038 0001159  99.1260 260.9860 15.06428202307515",
    "COMMENT": "Grouped by shell and plane from TLE"
  },
  {
    "OBJECT_NAME": "STARLINK-2558",
    "OBJECT_ID": "21036G",
    "EPOCH": "2025-11-11T05:44:38.220000",
    "MEAN_MOTION": 15.06405753,
    "ECCENTRICITY": 0.0001484,
    "INCLINATION": 53.0539,
    "RA_OF_ASC_NODE": 253.3632,
    "ARG_OF_PERICENTER": 77.9092,
    "MEAN_ANOMALY": 282.2064,
    "EPHEMERIS_TYPE": 0,
    "CLASSIFICATION_TYPE": "U",
    "NORAD_CAT_ID": 48282,
    "ELEMENT_SET_NO": 999,
    "REV_AT_EPOCH": 25046,
    "BSTAR": 0.00077799,
    "MEAN_MOTION_DOT": 0.00011327,
    "MEAN_MOTION_DDOT": 0.0,
    "TLE_LINE1": "1 48282U 21036G   25315.23933125  .00011327  00000+0  77799-3 0  9995",
    "TLE_LINE2": "2 48282  53.0539 253.3632 0001484  77.9092 282.2064 15.06405753250463",
    "COMMENT": "Grouped by shell and plane from TLE"
  },
  {
    "OBJECT_NAME": "STARLINK-2516",
    "OBJECT_ID": "21036H",
    "EPOCH": "2025-11-11T02:28:14.796192",
    "MEAN_MOTION": 15.06388482,
    "ECCENTRICITY": 0.0001546,
    "INCLINATION": 53.0539,
    "RA_OF_ASC_NODE": 253.9732,
    "ARG_OF_PERICENTER": 93.4143,
    "MEAN_ANOMALY": 266.7022,
    "EPHEMERIS_TYPE": 0,
    "CLASSIFICATION_TYPE": "U",
    "NORAD_CAT_ID": 48283,
    "ELEMENT_SET_NO": 999,
    "REV_AT_EPOCH": 25044,
    "BSTAR": 0.0,
    "MEAN_MOTION_DOT": -9.41e-06,
    "MEAN_MOTION_DDOT": 0.0,
    "TLE_LINE1": "1 48283U 21036H   25315.10294903 -.00000941  00000+0 -44295-4 0  9994",
    "TLE_LINE2": "2 48283  53.0539 253.9732 0001546  93.4143 266.7022 15.06388482250448",
    "COMMENT": "Grouped by shell and plane from TLE"
  },
  {
    "OBJECT_NAME": "STARLINK-2564",
    "OBJECT_ID": "21036J",
    "EPOCH": "2025-11-11T05:34:02.007552",
    "MEAN_MOTION": 15.06412075,
    "ECCENTRICITY": 0.0001502,
    "INCLINATION": 53.0533,
    "RA_OF_ASC_NODE": 253.3961,
    "ARG_OF_PERICENTER": 91.9096,
    "MEAN_ANOMALY": 268.2065,
    "EPHEMERIS_TYPE": 0,
    "CLASSIFICATION_TYPE": "U",
    "NORAD_CAT_ID": 48284,
    "ELEMENT_SET_NO": 999,
    "REV_AT_EPOCH": 25045,
    "BSTAR": 0.0010685,
    "MEAN_MOTION_DOT": 0.00015675,
    "MEAN_MOTION_DDOT": 0.0,
    "TLE_LINE1": "1 48284U 21036J   25315.23196768  .00015675  00000+0  10685-2 0  9991",
    "TLE_LINE2": "2 48284  53.0533 253.3961 0001502  91.9096 268.2065 15.06412075250454",
    "COMMENT": "Grouped by shell and plane from TLE"
  },
  {
    "OBJECT_NAME": "STARLINK-2547",
    "OBJECT_ID": "21036L",
    "EPOCH": "2025-11-11T06:00:35.843904",
    "MEAN_MOTION": 15.06407326,
    "ECCENTRICITY": 0.0001696,
    "INCLINATION": 53.0542,
    "RA_OF_ASC_NODE": 253.5816,
    "ARG_OF_PERICENTER": 98.92,
    "MEAN_ANOMALY": 261.1981,
    "EPHEMERIS_TYPE": 0,
    "CLASSIFICATION_TYPE": "U",
    "NORAD_CAT_ID": 48286,
    "ELEMENT_SET_NO": 999,
    "REV_AT_EPOCH": 25045,
    "BSTAR": 0.0006670700000000001,
    "MEAN_MOTION_DOT": 9.67e-05,
    "MEAN_MOTION_DDOT": 0.0,
    "TLE_LINE1": "1 48286U 21036L   25315.25041486  .00009670  00000+0  66707-3 0  9996",
    "TLE_LINE2": "2 48286  53.0542 253.5816 0001696  98.9200 261.1981 15.06407326250457",
    "COMMENT": "Grouped by shell and plane from TLE"
  },
  {
    "OBJECT_NAME": "STARLINK-2566",
    "OBJECT_ID": "21036M",
    "EPOCH": "2025-11-11T05:18:06.027840",
    "MEAN_MOTION": 15.06389687,
    "ECCENTRICITY": 0.000151,
    "INCLINATION": 53.0548,
    "RA_OF_ASC_NODE": 253.4476,
    "ARG_OF_PERICENTER": 82.2259,
    "MEAN_ANOMALY": 277.8901,
    "EPHEMERIS_TYPE": 0,
    "CLASSIFICATION_TYPE": "U",
    "NORAD_CAT_ID": 48287,
    "ELEMENT_SET_NO": 999,
    "REV_AT_EPOCH": 25045,
    "BSTAR": 0.00010992,
    "MEAN_MOTION_DOT": 1.356e-05,
    "MEAN_MOTION_DDOT": 0.0,
    "TLE_LINE1": "1 48287U 21036M   25315.22090310  .00001356  00000+0  10992-3 0  9992",
    "TLE_LINE2": "2 48287  53.0548 253.4476 0001510  82.2259 277.8901 15.06389687250455",
    "COMMENT": "Grouped by shell and plane from TLE"
  },
  {
    "OBJECT_NAME": "STARLINK-2545",
    "OBJECT_ID": "21036P",
    "EPOCH": "2025-11-11T05:07:28.777728",
    "MEAN_MOTION": 15.06401085,
    "ECCENTRICITY": 0.0001057,
    "INCLINATION": 53.0533,
    "RA_OF_ASC_NODE": 253.4851,
    "ARG_OF_PERICENTER": 84.8137,
    "MEAN_ANOMALY": 275.2973,
    "EPHEMERIS_TYPE": 0,
    "CLASSIFICATION_TYPE": "U",
    "NORAD_CAT_ID": 48289,
    "ELEMENT_SET_NO": 999,
    "REV_AT_EPOCH": 25045,
    "BSTAR": 0.00088504,
    "MEAN_MOTION_DOT": 0.00012926,
    "MEAN_MOTION_DDOT": 0.0,
    "TLE_LINE1": "1 48289U 21036P   25315.21352752  .00012926  00000+0  88504-3 0  9993",
    "TLE_LINE2": "2 48289  53.0533 253.4851 0001057  84.8137 275.2973 15.06401085250455",
    "COMMENT": "Grouped by shell and plane from TLE"
  },
  {
    "OBJECT_NAME": "STARLINK-2555",
    "OBJECT_ID": "21036R",
    "EPOCH": "2025-11-11T06:32:24.190080",
    "MEAN_MOTION": 15.06395601,
    "ECCENTRICITY": 0.0001302,
    "INCLINATION": 53.0547,
    "RA_OF_ASC_NODE": 253.2168,
    "ARG_OF_PERICENTER": 85.6008,
    "MEAN_ANOMALY": 274.5129,
    "EPHEMERIS_TYPE": 0,
    "CLASSIFICATION_TYPE": "U",
    "NORAD_CAT_ID": 48291,
    "ELEMENT_SET_NO": 999,
    "REV_AT_EPOCH": 25046,
    "BSTAR": 0.00018637000000000002,
    "MEAN_MOTION_DOT": 2.495e-05,
    "MEAN_MOTION_DDOT": 0.0,
    "TLE_LINE1": "1 48291U 21036R   25315.27250220  .00002495  00000+0  18637-3 0  9999",
    "TLE_LINE2": "2 48291  53.0547 253.2168 0001302  85.6008 274.5129 15.06395601250463",
    "COMMENT": "Grouped by shell and plane from TLE"
  },
  {
    "OBJECT_NAME": "STARLINK-2542",
    "OBJECT_ID": "21036S",
    "EPOCH": "2025-11-11T05:12:48.504384",
    "MEAN_MOTION": 15.06398451,
    "ECCENTRICITY": 0.0001413,
    "INCLINATION": 53.0544,
    "RA_OF_ASC_NODE": 253.6272,
    "ARG_OF_PERICENTER": 87.7885,
    "MEAN_ANOMALY": 272.3266,
    "EPHEMERIS_TYPE": 0,
    "CLASSIFICATION_TYPE": "U",
    "NORAD_CAT_ID": 48292,
    "ELEMENT_SET_NO": 999,
    "REV_AT_EPOCH": 25045,
    "BSTAR": 0.00014323,
    "MEAN_MOTION_DOT": 1.852e-05,
    "MEAN_MOTION_DDOT": 0.0,
    "TLE_LINE1": "1 48292U 21036S   25315.21722806  .00001852  00000+0  14323-3 0  9992",
    "TLE_LINE2": "2 48292  53.0544 253.6272 0001413  87.7885 272.3266 15.06398451250453",
    "COMMENT": "Grouped by shell and plane from TLE"
  }
]